[{"OBJECT_NAME":"OBJECT F","OBJECT_ID":"2023-072F","EPOCH":"2026-03-09T23:31:37.259904","MEAN_MOTION":15.29470958,"ECCENTRICITY":0.00062878,"INCLINATION":97.5173,"RA_OF_ASC_NODE":265.798,"ARG_OF_PERICENTER":19.0017,"MEAN_ANOMALY":341.1456,"EPHEMERIS_TYPE":0,"CLASSIFICATION_TYPE":"U","NORAD_CAT_ID":56748,"ELEMENT_SET_NO":999,"REV_AT_EPOCH":15460,"BSTAR":0.00043416252,"MEAN_MOTION_DOT":0.00012341,"MEAN_MOTION_DDOT":0},{"OBJECT_NAME":"STARLINK-32155","OBJECT_ID":"2024-131V","EPOCH":"2026-03-09T22:24:19.205568","MEAN_MOTION":15.30182579,"ECCENTRICITY":0.00013294,"INCLINATION":53.1613,"RA_OF_ASC_NODE":51.4607,"ARG_OF_PERICENTER":97.9871,"MEAN_ANOMALY":262.1281,"EPHEMERIS_TYPE":0,"CLASSIFICATION_TYPE":"U","NORAD_CAT_ID":60274,"ELEMENT_SET_NO":999,"REV_AT_EPOCH":9165,"BSTAR":3.500331e-5,"MEAN_MOTION_DOT":6.77e-6,"MEAN_MOTION_DDOT":0}]
